AQUA                    
1 27424U 02022A   26073.27851048  .00001164  00000+0  24199-3 0  9997
2 27424  98.4181  40.7272 0000600  98.3020   7.1472 14.61989175269405
CZ-4B R/B               
1 27432U 02024C   26073.17690507  .00000050  00000+0  48761-4 0  9993
2 27432  98.8829 126.5607 0050263  11.5157  58.3424 14.14548569229878
MIDORI II (ADEOS-II)    
1 27597U 02056A   26072.30393977  .00000377  00000+0  16588-3 0  9998
2 27597  98.7772  30.8065 0001456  38.7795 321.3491 14.29288390210810
H-2A R/B                
1 27601U 02056E   26073.32559796  .00000302  00000+0  12025-3 0  9990
2 27601  98.3210  33.5149 0070774 146.9527 337.8053 14.33764161214771
CZ-4B R/B               
1 28059U 03049C   26073.26603265  .00000437  00000+0  11182-3 0  9997
2 28059  98.6881  68.3504 0047432 216.6706 143.1241 14.55025021187265
CZ-2C R/B               
1 28222U 04012C   26073.14948594  .00065369  00000+0  65923-3 0  9991
2 28222  97.7222 138.8664 0012896 291.1651  68.8229 15.65072043204974
SL-16 R/B               
1 28353U 04021B   26072.41691379 -.00000281  00000+0 -12159-3 0  9998
2 28353  70.9996 224.6701 0004293   3.8877 356.2278 14.14596418123367
CZ-4B R/B               
1 28415U 04035C   26073.09735942  .00009434  00000+0  33148-3 0  9990
2 28415  97.3500 107.2873 0030563 315.1880  44.6892 15.29147005180586
CZ-2C R/B               
1 28480U 04046B   26073.25364846  .00000135  00000+0  64999-4 0  9991
2 28480  98.1981 347.9535 0140130 140.9956 220.1434 14.26993781109151
ARIANE 5 R/B            
1 28499U 04049H   26073.07894993  .00000847  00000+0  99921-4 0  9998
2 28499  98.2633 241.7004 0083629 337.6537  22.1041 14.85274704146446
CZ-2D R/B               
1 28738U 05024B   26073.00611465  .00049268  00000+0  59547-3 0  9991
2 28738  97.3594  88.3119 0005160  35.6618 324.4983 15.60561597140450
ALOS (DAICHI)           
1 28931U 06002A   26073.13213300  .00001585  00000+0  27366-3 0  9997
2 28931  98.1223  29.0654 0000786  64.8679 295.2608 14.69826204 74136
