CCSDS_OMM_VERS = 2.0
CREATION_DATE  = 
ORIGINATOR     = 

OBJECT_NAME    = AQUA
OBJECT_ID      = 2002-022A
CENTER_NAME    = EARTH
REF_FRAME      = TEME
TIME_SYSTEM    = UTC
MEAN_ELEMENT_THEORY = SGP/SGP4

EPOCH          = 2026-03-14T06:41:03.305472
MEAN_MOTION    = 14.61989175
ECCENTRICITY   = .00006002
INCLINATION    = 98.4181
RA_OF_ASC_NODE = 40.7272
ARG_OF_PERICENTER = 98.3020
MEAN_ANOMALY   = 7.1472

EPHEMERIS_TYPE = 0
CLASSIFICATION_TYPE = U
NORAD_CAT_ID   = 27424
ELEMENT_SET_NO = 999
REV_AT_EPOCH   = 26940
BSTAR          = .24198599E-3
MEAN_MOTION_DOT = .1164E-4
MEAN_MOTION_DDOT = 0

CCSDS_OMM_VERS = 2.0
CREATION_DATE  = 
ORIGINATOR     = 

OBJECT_NAME    = CZ-4B R/B
OBJECT_ID      = 2002-024C
CENTER_NAME    = EARTH
REF_FRAME      = TEME
TIME_SYSTEM    = UTC
MEAN_ELEMENT_THEORY = SGP/SGP4

EPOCH          = 2026-03-14T04:14:44.598048
MEAN_MOTION    = 14.14548569
ECCENTRICITY   = .00502631
INCLINATION    = 98.8829
RA_OF_ASC_NODE = 126.5607
ARG_OF_PERICENTER = 11.5157
MEAN_ANOMALY   = 58.3424

EPHEMERIS_TYPE = 0
CLASSIFICATION_TYPE = U
NORAD_CAT_ID   = 27432
ELEMENT_SET_NO = 999
REV_AT_EPOCH   = 22987
BSTAR          = .48760868E-4
MEAN_MOTION_DOT = .5E-6
MEAN_MOTION_DDOT = 0

CCSDS_OMM_VERS = 2.0
CREATION_DATE  = 
ORIGINATOR     = 

OBJECT_NAME    = MIDORI II (ADEOS-II)
OBJECT_ID      = 2002-056A
CENTER_NAME    = EARTH
REF_FRAME      = TEME
TIME_SYSTEM    = UTC
MEAN_ELEMENT_THEORY = SGP/SGP4

EPOCH          = 2026-03-13T07:17:40.396128
MEAN_MOTION    = 14.29288390
ECCENTRICITY   = .00014565
INCLINATION    = 98.7772
RA_OF_ASC_NODE = 30.8065
ARG_OF_PERICENTER = 38.7795
MEAN_ANOMALY   = 321.3491

EPHEMERIS_TYPE = 0
CLASSIFICATION_TYPE = U
NORAD_CAT_ID   = 27597
ELEMENT_SET_NO = 999
REV_AT_EPOCH   = 21081
BSTAR          = .16588023E-3
MEAN_MOTION_DOT = .377E-5
MEAN_MOTION_DDOT = 0

CCSDS_OMM_VERS = 2.0
CREATION_DATE  = 
ORIGINATOR     = 

OBJECT_NAME    = H-2A R/B
OBJECT_ID      = 2002-056E
CENTER_NAME    = EARTH
REF_FRAME      = TEME
TIME_SYSTEM    = UTC
MEAN_ELEMENT_THEORY = SGP/SGP4

EPOCH          = 2026-03-14T07:48:51.663744
MEAN_MOTION    = 14.33764161
ECCENTRICITY   = .00707748
INCLINATION    = 98.3210
RA_OF_ASC_NODE = 33.5149
ARG_OF_PERICENTER = 146.9527
MEAN_ANOMALY   = 337.8053

EPHEMERIS_TYPE = 0
CLASSIFICATION_TYPE = U
NORAD_CAT_ID   = 27601
ELEMENT_SET_NO = 999
REV_AT_EPOCH   = 21477
BSTAR          = .12025211E-3
MEAN_MOTION_DOT = .302E-5
MEAN_MOTION_DDOT = 0

CCSDS_OMM_VERS = 2.0
CREATION_DATE  = 
ORIGINATOR     = 

OBJECT_NAME    = CZ-4B R/B
OBJECT_ID      = 2003-049C
CENTER_NAME    = EARTH
REF_FRAME      = TEME
TIME_SYSTEM    = UTC
MEAN_ELEMENT_THEORY = SGP/SGP4

EPOCH          = 2026-03-14T06:23:05.220960
MEAN_MOTION    = 14.55025021
ECCENTRICITY   = .00474322
INCLINATION    = 98.6881
RA_OF_ASC_NODE = 68.3504
ARG_OF_PERICENTER = 216.6706
MEAN_ANOMALY   = 143.1241

EPHEMERIS_TYPE = 0
CLASSIFICATION_TYPE = U
NORAD_CAT_ID   = 28059
ELEMENT_SET_NO = 999
REV_AT_EPOCH   = 18726
BSTAR          = .11182447E-3
MEAN_MOTION_DOT = .437E-5
MEAN_MOTION_DDOT = 0

CCSDS_OMM_VERS = 2.0
CREATION_DATE  = 
ORIGINATOR     = 

OBJECT_NAME    = CZ-2C R/B
OBJECT_ID      = 2004-012C
CENTER_NAME    = EARTH
REF_FRAME      = TEME
TIME_SYSTEM    = UTC
MEAN_ELEMENT_THEORY = SGP/SGP4

EPOCH          = 2026-03-14T03:35:15.585216
MEAN_MOTION    = 15.65072043
ECCENTRICITY   = .00128966
INCLINATION    = 97.7222
RA_OF_ASC_NODE = 138.8664
ARG_OF_PERICENTER = 291.1651
MEAN_ANOMALY   = 68.8229

EPHEMERIS_TYPE = 0
CLASSIFICATION_TYPE = U
NORAD_CAT_ID   = 28222
ELEMENT_SET_NO = 999
REV_AT_EPOCH   = 20497
BSTAR          = .65922707E-3
MEAN_MOTION_DOT = .65369E-3
MEAN_MOTION_DDOT = 0

CCSDS_OMM_VERS = 2.0
CREATION_DATE  = 
ORIGINATOR     = 

OBJECT_NAME    = SL-16 R/B
OBJECT_ID      = 2004-021B
CENTER_NAME    = EARTH
REF_FRAME      = TEME
TIME_SYSTEM    = UTC
MEAN_ELEMENT_THEORY = SGP/SGP4

EPOCH          = 2026-03-13T10:00:21.351456
MEAN_MOTION    = 14.14596418
ECCENTRICITY   = .0004293
INCLINATION    = 70.9996
RA_OF_ASC_NODE = 224.6701
ARG_OF_PERICENTER = 3.8877
MEAN_ANOMALY   = 356.2278

EPHEMERIS_TYPE = 0
CLASSIFICATION_TYPE = U
NORAD_CAT_ID   = 28353
ELEMENT_SET_NO = 999
REV_AT_EPOCH   = 12336
BSTAR          = -.12158589E-3
MEAN_MOTION_DOT = -.281E-5
MEAN_MOTION_DDOT = 0

CCSDS_OMM_VERS = 2.0
CREATION_DATE  = 
ORIGINATOR     = 

OBJECT_NAME    = CZ-4B R/B
OBJECT_ID      = 2004-035C
CENTER_NAME    = EARTH
REF_FRAME      = TEME
TIME_SYSTEM    = UTC
MEAN_ELEMENT_THEORY = SGP/SGP4

EPOCH          = 2026-03-14T02:20:11.853888
MEAN_MOTION    = 15.29147005
ECCENTRICITY   = .00305639
INCLINATION    = 97.3500
RA_OF_ASC_NODE = 107.2873
ARG_OF_PERICENTER = 315.1880
MEAN_ANOMALY   = 44.6892

EPHEMERIS_TYPE = 0
CLASSIFICATION_TYPE = U
NORAD_CAT_ID   = 28415
ELEMENT_SET_NO = 999
REV_AT_EPOCH   = 18058
BSTAR          = .3314802E-3
MEAN_MOTION_DOT = .9434E-4
MEAN_MOTION_DDOT = 0

CCSDS_OMM_VERS = 2.0
CREATION_DATE  = 
ORIGINATOR     = 

OBJECT_NAME    = CZ-2C R/B
OBJECT_ID      = 2004-046B
CENTER_NAME    = EARTH
REF_FRAME      = TEME
TIME_SYSTEM    = UTC
MEAN_ELEMENT_THEORY = SGP/SGP4

EPOCH          = 2026-03-14T06:05:15.226944
MEAN_MOTION    = 14.26993781
ECCENTRICITY   = .01401305
INCLINATION    = 98.1981
RA_OF_ASC_NODE = 347.9535
ARG_OF_PERICENTER = 140.9956
MEAN_ANOMALY   = 220.1434

EPHEMERIS_TYPE = 0
CLASSIFICATION_TYPE = U
NORAD_CAT_ID   = 28480
ELEMENT_SET_NO = 999
REV_AT_EPOCH   = 10915
BSTAR          = .64998819E-4
MEAN_MOTION_DOT = .135E-5
MEAN_MOTION_DDOT = 0

CCSDS_OMM_VERS = 2.0
CREATION_DATE  = 
ORIGINATOR     = 

OBJECT_NAME    = ARIANE 5 R/B
OBJECT_ID      = 2004-049H
CENTER_NAME    = EARTH
REF_FRAME      = TEME
TIME_SYSTEM    = UTC
MEAN_ELEMENT_THEORY = SGP/SGP4

EPOCH          = 2026-03-14T01:53:41.273952
MEAN_MOTION    = 14.85274704
ECCENTRICITY   = .00836299
INCLINATION    = 98.2633
RA_OF_ASC_NODE = 241.7004
ARG_OF_PERICENTER = 337.6537
MEAN_ANOMALY   = 22.1041

EPHEMERIS_TYPE = 0
CLASSIFICATION_TYPE = U
NORAD_CAT_ID   = 28499
ELEMENT_SET_NO = 999
REV_AT_EPOCH   = 14644
BSTAR          = .99921437E-4
MEAN_MOTION_DOT = .847E-5
MEAN_MOTION_DDOT = 0

CCSDS_OMM_VERS = 2.0
CREATION_DATE  = 
ORIGINATOR     = 

OBJECT_NAME    = CZ-2D R/B
OBJECT_ID      = 2005-024B
CENTER_NAME    = EARTH
REF_FRAME      = TEME
TIME_SYSTEM    = UTC
MEAN_ELEMENT_THEORY = SGP/SGP4

EPOCH          = 2026-03-14T00:08:48.305760
MEAN_MOTION    = 15.60561597
ECCENTRICITY   = .000516
INCLINATION    = 97.3594
RA_OF_ASC_NODE = 88.3119
ARG_OF_PERICENTER = 35.6618
MEAN_ANOMALY   = 324.4983

EPHEMERIS_TYPE = 0
CLASSIFICATION_TYPE = U
NORAD_CAT_ID   = 28738
ELEMENT_SET_NO = 999
REV_AT_EPOCH   = 14045
BSTAR          = .59546927E-3
MEAN_MOTION_DOT = .49268E-3
MEAN_MOTION_DDOT = 0

CCSDS_OMM_VERS = 2.0
CREATION_DATE  = 
ORIGINATOR     = 

OBJECT_NAME    = ALOS (DAICHI)
OBJECT_ID      = 2006-002A
CENTER_NAME    = EARTH
REF_FRAME      = TEME
TIME_SYSTEM    = UTC
MEAN_ELEMENT_THEORY = SGP/SGP4

EPOCH          = 2026-03-14T03:10:16.291200
MEAN_MOTION    = 14.69826204
ECCENTRICITY   = .00007863
INCLINATION    = 98.1223
RA_OF_ASC_NODE = 29.0654
ARG_OF_PERICENTER = 64.8679
MEAN_ANOMALY   = 295.2608

EPHEMERIS_TYPE = 0
CLASSIFICATION_TYPE = U
NORAD_CAT_ID   = 28931
ELEMENT_SET_NO = 999
REV_AT_EPOCH   = 7413
BSTAR          = .27365583E-3
MEAN_MOTION_DOT = .1585E-4
MEAN_MOTION_DDOT = 0

